{"fetched_at":"2026-03-30T06:02:59Z","count":15439,"tles":[{"name":"STARLINK-32316","line1":"1 61860U 24202R   26087.80654242  .00000712  00000+0  35400-4 0  9990","line2":"2 61860  43.0012 126.3642 0001240 280.6102  79.4609 15.27583995 78298","category":"Starlink"}]}