{
  "norad_id": 61860,
  "name": "STARLINK-32316",
  "history": [
    {
      "epoch": "2026-03-28T19:21:25.265088",
      "apogee_km": 483.8879878028374,
      "perigee_km": 482.18627939422277,
      "latitude_deg": -40.22020914515778,
      "longitude_deg": 83.42807232006453,
      "semi_major_axis_km": 6861.17413359853,
      "eccentricity": 0.00012401,
      "inclination_deg": 43.0012,
      "raan_deg": 126.3642,
      "arg_perigee_deg": 280.6102,
      "mean_anomaly_deg": 79.4609,
      "mean_motion_rev_day": 15.27583995
    }
  ]
}